     2.100          NAVIGATION                              RINEX VERSION / TYPE
fic2rin                                 01/11/2011 00:08:39 PGM / RUN BY / DATE
                                                            END OF HEADER
18 11  1 10 19 59 44.0  .115218572319D-03  .216004991671D-11  .000000000000D+00
     .210000000000D+02  .302500000000D+02  .529664919813D-08  .273226379796D+01
     .144541263580D-05  .118390765274D-01  .490620732307D-05  .515375457001D+04
     .158384000000D+06 -.428408384323D-07  .258112211378D+01 -.167638063431D-06
     .934577259591D+00  .269968750000D+03 -.227810293711D+01 -.833606151614D-08
    -.635740766869D-10  .100000000000D+01  .161800000000D+04  .000000000000D+00
     .240000000000D+01  .000000000000D+00 -.107102096081D-07  .210000000000D+02
     .151206000000D+06  .400000000000D+01
 1 11  1 10 20  0  0.0 -.198964960873D-03 -.318323145621D-11  .000000000000D+00
     .690000000000D+02 -.213750000000D+02  .456054710795D-08  .180868360078D+01
    -.113435089588D-05  .440880341921D-02  .490620732307D-05  .515354749298D+04
     .158400000000D+06 -.100582838058D-06 -.580847484778D+00 -.298023223877D-07
     .967557232105D+00  .289437500000D+03  .906009727422D+00 -.819998441941D-08
     .114647632677D-09  .100000000000D+01  .161800000000D+04  .000000000000D+00
     .240000000000D+01  .630000000000D+02 -.190921127796D-07  .690000000000D+02
     .151206000000D+06  .400000000000D+01
 2 11  1 10 20  0  0.0  .313931610435D-03  .216004991671D-11  .000000000000D+00
     .220000000000D+02  .440937500000D+02  .516164357460D-08  .191615229269D+00
     .230409204960D-05  .991445337422D-02  .920332968235D-05  .515369425964D+04
     .158400000000D+06  .150874257088D-06  .149879706387D+01  .298023223877D-07
     .938898993163D+00  .190437500000D+03 -.310720686947D+01 -.839963559282D-08
     .181078971237D-09  .100000000000D+01  .161800000000D+04  .000000000000D+00
     .240000000000D+01  .000000000000D+00 -.172294676304D-07  .220000000000D+02
     .151206000000D+06  .400000000000D+01
 3 11  1 10 20  0  0.0  .660726800561D-03  .511590769747D-11  .000000000000D+00
     .230000000000D+02 -.545625000000D+02  .533665086436D-08  .120044582327D+00
    -.282004475594D-05  .138964204816D-01  .805221498013D-05  .515363664055D+04
     .158400000000D+06 -.143423676491D-06  .342998182291D+00  .175088644028D-06
     .928437939544D+00  .209625000000D+03  .106921384704D+01 -.865107463770D-08
    -.122862260563D-09  .100000000000D+01  .161800000000D+04  .000000000000D+00
     .240000000000D+01  .000000000000D+00 -.465661287308D-08  .230000000000D+02
     .151206000000D+06  .400000000000D+01
 4 11  1 10 20  0  0.0  .524241477251D-05  .100044417195D-10  .000000000000D+00
     .330000000000D+02  .544062500000D+02  .499770817461D-08 -.313439589686D+01
     .265240669250D-05  .962798763067D-02  .937841832638D-05  .515357846451D+04
     .158400000000D+06 -.428408384323D-07  .151637428500D+01 -.128522515297D-06
     .938002416023D+00  .187093750000D+03  .700712741144D+00 -.808819404860D-08
     .202865593023D-09  .100000000000D+01  .161800000000D+04  .000000000000D+00
     .240000000000D+01  .000000000000D+00 -.605359673500D-08  .330000000000D+02
     .151206000000D+06  .400000000000D+01
 5 11  1 10 20  0  0.0 -.968039967120D-04 -.591171556152D-11  .000000000000D+00
     .570000000000D+02  .311250000000D+02  .501378027264D-08  .186819426122D+01
     .174529850483D-05  .221202441026D-02  .520423054695D-05  .515359252548D+04
     .158400000000D+06 -.223517417908D-07  .256014148835D+01  .391155481339D-07
     .955669634402D+00  .277593750000D+03  .255541004263D+00 -.836749139675D-08
    -.700029159024D-10  .100000000000D+01  .161800000000D+04  .000000000000D+00
     .240000000000D+01  .000000000000D+00 -.977888703346D-08  .570000000000D+02
     .151206000000D+06  .400000000000D+01
 6 11  1 10 20  0  0.0  .373970251530D-03 -.500222085975D-11  .000000000000D+00
     .750000000000D+02 -.579375000000D+02  .506199656676D-08  .223617619650D+01
    -.303424894810D-05  .630853860639D-02  .820681452751D-05  .515365781975D+04
     .158400000000D+06  .800937414169D-07  .415483768921D+00  .186264514923D-07
     .935615188265D+00  .206781250000D+03 -.882464839208D+00 -.821391357104D-08
    -.160720980388D-09  .100000000000D+01  .161800000000D+04  .000000000000D+00
     .240000000000D+01  .000000000000D+00 -.465661287308D-08  .750000000000D+02
     .151206000000D+06  .400000000000D+01
 7 11  1 10 20  0  0.0  .161770731211D-05  .568434188608D-12  .000000000000D+00
     .980000000000D+02  .255937500000D+02  .411695720208D-08 -.155117494391D+01
     .120885670185D-05  .416443741415D-02  .770948827267D-05  .515367845726D+04
     .158400000000D+06 -.838190317154D-07 -.161983765349D+01 -.577419996262D-07
     .973395400226D+00  .238656250000D+03 -.309823589300D+01 -.787354225035D-08
     .222152110670D-09  .100000000000D+01  .161800000000D+04  .000000000000D+00
     .340000000000D+01  .000000000000D+00 -.102445483208D-07  .980000000000D+02
     .151206000000D+06  .400000000000D+01
 8 11  1 10 20  0  0.0  .714650377631D-05  .000000000000D+00  .000000000000D+00
     .119000000000D+03  .273750000000D+02  .364872341255D-08 -.208404384760D+01
     .122189521790D-05  .114429248497D-01  .816397368908D-05  .515363213921D+04
     .158400000000D+06 -.875443220139D-07 -.154714963704D+01 -.132247805595D-06
     .994949063828D+00  .241062500000D+03 -.309297338461D+01 -.765139013968D-08
     .328585115460D-09  .100000000000D+01  .161800000000D+04  .000000000000D+00
     .340000000000D+01  .000000000000D+00 -.419095158577D-08  .119000000000D+03
     .151206000000D+06  .400000000000D+01
 9 11  1 10 20  0  0.0  .545117072761D-04  .250111042988D-11  .000000000000D+00
     .160000000000D+02  .177500000000D+02  .381015870840D-08 -.220396381564D+01
     .103004276752D-05  .169817951974D-01  .836513936520D-05  .515368918610D+04
     .158400000000D+06  .273808836937D-06 -.164932223342D+01  .109896063805D-06
     .982383538183D+00  .226656250000D+03  .155572823547D+01 -.752281335537D-08
     .202865593023D-09  .100000000000D+01  .161800000000D+04  .000000000000D+00
     .240000000000D+01  .000000000000D+00 -.558793544769D-08  .160000000000D+02
     .151206000000D+06  .400000000000D+01
11 11  1 10 20  0  0.0 -.118234194815D-03 -.295585778076D-11  .000000000000D+00
     .840000000000D+02  .295312500000D+02  .613882713536D-08 -.151100332756D+01
     .151805579662D-05  .115828983253D-01  .877119600773D-05  .515349242783D+04
     .158400000000D+06  .286847352982D-06  .126846004322D+01 -.745058059692D-08
     .887771946122D+00  .167250000000D+03  .903635159757D+00 -.867178978628D-08
     .173221501085D-09  .100000000000D+01  .161800000000D+04  .000000000000D+00
     .240000000000D+01  .000000000000D+00 -.116415321827D-07  .840000000000D+02
     .151206000000D+06  .400000000000D+01
12 11  1 10 20  0  0.0 -.369502231479D-04  .329691829393D-11  .000000000000D+00
     .570000000000D+02 -.265312500000D+02  .439875465436D-08 -.139904474403D+01
    -.127777457237D-05  .346004194580D-02  .530108809471D-05  .515352303314D+04
     .158400000000D+06 -.763684511185D-07 -.565008937404D+00 -.260770320892D-07
     .973689435056D+00  .284562500000D+03 -.326499860327D+00 -.808247952486D-08
     .143577409147D-09  .100000000000D+01  .161800000000D+04  .000000000000D+00
     .240000000000D+01  .000000000000D+00 -.116415321827D-07  .570000000000D+02
     .151206000000D+06  .400000000000D+01
13 11  1 10 20  0  0.0  .286330003291D-03 -.125055521494D-11  .000000000000D+00
     .510000000000D+02 -.906250000000D+01  .374051295024D-08  .969056253540D+00
    -.637024641037D-06  .437018636148D-02  .852532684803D-05  .515366191483D+04
     .158400000000D+06 -.800937414169D-07 -.259707800912D+01 -.540167093277D-07
     .991250262718D+00  .230843750000D+03  .179070901161D+01 -.773389357628D-08
    -.266439669710D-09  .100000000000D+01  .161800000000D+04  .000000000000D+00
     .240000000000D+01  .000000000000D+00 -.107102096081D-07  .510000000000D+02
     .151206000000D+06  .400000000000D+01
15 11  1 10 20  0  0.0 -.162595883012D-03  .386535248253D-11  .000000000000D+00
     .600000000000D+01 -.254687500000D+02  .475769817723D-08  .566255179761D+00
    -.135228037834D-05  .328410556540D-02  .723078846931D-05  .515388449669D+04
     .158400000000D+06  .726431608200D-07 -.269170226128D+01  .558793544769D-08
     .951719647332D+00  .231687500000D+03 -.135915095924D+00 -.825962976102D-08
    -.358586365133D-09  .100000000000D+01  .161800000000D+04  .000000000000D+00
     .240000000000D+01  .000000000000D+00 -.977888703346D-08  .600000000000D+01
     .151206000000D+06  .400000000000D+01
16 11  1 10 20  0  0.0 -.141622032970D-03 -.306954461848D-11  .000000000000D+00
     .460000000000D+02 -.280000000000D+02  .436125309227D-08  .246468425942D+01
    -.140629708767D-05  .602883216925D-02  .495277345181D-05  .515372723770D+04
     .158400000000D+06 -.577419996262D-07 -.547314760371D+00  .117346644402D-06
     .974786253497D+00  .292531250000D+03 -.169007344474D+00 -.805354974839D-08
     .667884962947D-10  .100000000000D+01  .161800000000D+04  .000000000000D+00
     .240000000000D+01  .000000000000D+00 -.977888703346D-08  .460000000000D+02
     .151206000000D+06  .400000000000D+01
17 11  1 10 20  0  0.0  .181423034519D-03  .682121026330D-12  .000000000000D+00
     .610000000000D+02 -.430312500000D+02  .449268713845D-08  .141153452124D+01
    -.226125121117D-05  .594333454501D-02  .935047864914D-05  .515370409775D+04
     .158400000000D+06 -.726431608200D-07  .495162234089D+00  .117346644402D-06
     .961026653155D+00  .197250000000D+03 -.248234162358D+01 -.804212070089D-08
    -.153220667970D-09  .100000000000D+01  .161800000000D+04  .000000000000D+00
     .240000000000D+01  .000000000000D+00 -.102445483208D-07  .610000000000D+02
     .151206000000D+06  .400000000000D+01
